BEIDOU-3 M2             
1 43002U 17069B   26062.29133178 -.00000015  00000+0  00000+0 0  9997
2 43002  56.5986  66.6073 0009696 328.7489  31.2236  1.86230505 56625
BEIDOU-3 M7             
1 43107U 18003A   26062.03335740 -.00000057  00000+0  00000+0 0  9999
2 43107  54.4221 306.0180 0004645  71.0073 289.1026  1.86232234 55379
BEIDOU-3 M8             
1 43108U 18003B   26061.44195370 -.00000053  00000+0  00000+0 0  9993
2 43108  54.4152 306.0214 0003138 293.2400  66.7868  1.86230717 55376
BEIDOU-3 M4             
1 43207U 18018A   26062.42109766 -.00000016  00000+0  00000+0 0  9991
2 43207  56.5592  66.6343 0006867 350.5022   9.5144  1.86230898 54773
BEIDOU-3 M3             
1 43208U 18018B   26062.48754531 -.00000017  00000+0  00000+0 0  9995
2 43208  56.5588  66.6362 0009891 319.5859  40.3698  1.86231010 54777
BEIDOU-3 M9             
1 43245U 18029A   26062.16773196 -.00000053  00000+0  00000+0 0  9991
2 43245  54.2892 303.6573 0000915  20.7299 339.3338  1.86228161 53927
BEIDOU-3 M10            
1 43246U 18029B   26062.10261873 -.00000053  00000+0  00000+0 0  9990
2 43246  54.2869 303.6873 0005105  23.5848 336.4987  1.86228882 53908
BEIDOU-2 IGSO-7         
1 43539U 18057A   26056.73984515 -.00000161  00000+0  00000+0 0  9993
2 43539  55.1859 164.0342 0099962 236.5988 133.5173  1.00284731 28015
BEIDOU-3 M5             
1 43581U 18062A   26061.78977297 -.00000024  00000+0  00000+0 0  9994
2 43581  54.0881 185.9208 0002090 310.9128  49.0230  1.86228549 51657
BEIDOU-3 M6             
1 43582U 18062B   26062.72660291 -.00000014  00000+0  00000+0 0  9992
2 43582  54.0877 185.8781 0006253  44.1520 315.8561  1.86227537 51674
BEIDOU-3 M12            
1 43602U 18067A   26061.59110086 -.00000026  00000+0  00000+0 0  9999
2 43602  54.1825 184.6546 0008588  39.8197 320.1981  1.86227627 51137
BEIDOU-3 M11            
1 43603U 18067B   26061.18888096 -.00000029  00000+0  00000+0 0  9991
2 43603  54.1803 184.6321 0005013  34.6184 325.3680  1.86227037 51154
BEIDOU-3 M13            
1 43622U 18072A   26061.14480929 -.00000007  00000+0  00000+0 0  9993
2 43622  56.5306  66.1905 0008885 307.5967  52.3573  1.86230769 50661
BEIDOU-3 M14            
1 43623U 18072B   26061.01026698 -.00000006  00000+0  00000+0 0  9998
2 43623  56.5324  66.1890 0006344 328.5825  31.4150  1.86230813 50657
BEIDOU-3 M16            
1 43647U 18078A   26061.16715456 -.00000048  00000+0  00000+0 0  9999
2 43647  54.1863 303.7392 0008434  30.8134 329.2965  1.86232266 50162
BEIDOU-3 M15            
1 43648U 18078B   26062.37035185 -.00000055  00000+0  00000+0 0  9996
2 43648  54.1808 303.6975 0005342  38.8897 321.2084  1.86232017 50200
BEIDOU-3 G1             
1 43683U 18085A   26062.97073001 -.00000290  00000+0  00000+0 0  9999
2 43683   2.8094 100.3977 0001338  25.9215 164.9072  1.00268635 27004
